{
    "links": {
        "self": "http://www.neowsapp.com/rest/v1/neo/3759662?api_key=iIulBulltgU6a56xZRHN4H3l9WmuAYTsLGpBGhQ2"
    },
    "id": "3759662",
    "neo_reference_id": "3759662",
    "name": "(2016 RC41)",
    "designation": "2016 RC41",
    "nasa_jpl_url": "http://ssd.jpl.nasa.gov/sbdb.cgi?sstr=3759662",
    "absolute_magnitude_h": 23.3,
    "estimated_diameter": {
        "kilometers": {
            "estimated_diameter_min": 0.058150704,
            "estimated_diameter_max": 0.130028927
        },
        "meters": {
            "estimated_diameter_min": 58.1507039646,
            "estimated_diameter_max": 130.0289270043
        },
        "miles": {
            "estimated_diameter_min": 0.0361331611,
            "estimated_diameter_max": 0.0807962044
        },
        "feet": {
            "estimated_diameter_min": 190.7831555951,
            "estimated_diameter_max": 426.6041048727
        }
    },
    "is_potentially_hazardous_asteroid": false,
    "close_approach_data": [
        {
            "close_approach_date": "2016-08-31",
            "close_approach_date_full": "2016-Aug-31 04:24",
            "epoch_date_close_approach": 1472617440000,
            "relative_velocity": {
                "kilometers_per_second": "3.5811022916",
                "kilometers_per_hour": "12891.9682497272",
                "miles_per_hour": "8010.5677160596"
            },
            "miss_distance": {
                "astronomical": "0.2431186051",
                "lunar": "94.5731373839",
                "kilometers": "36370025.480331137",
                "miles": "22599285.8906662106"
            },
            "orbiting_body": "Earth"
        }
    ],
    "orbital_data": {
        "orbit_id": "4",
        "orbit_determination_date": "2017-04-06 08:23:48",
        "first_observation_date": "2016-09-12",
        "last_observation_date": "2016-10-07",
        "data_arc_in_days": 25,
        "observations_used": 22,
        "orbit_uncertainty": "7",
        "minimum_orbit_intersection": ".227728",
        "jupiter_tisserand_invariant": "3.532",
        "epoch_osculation": "2459000.5",
        "eccentricity": ".4402518333466493",
        "semi_major_axis": "2.194405819443844",
        "inclination": "5.255445083082338",
        "ascending_node_longitude": "192.9592576320208",
        "orbital_period": "1187.336575641132",
        "perihelion_distance": "1.228314634327135",
        "perihelion_argument": "140.6880113716969",
        "aphelion_distance": "3.160497004560553",
        "perihelion_time": "2458808.636075480147",
        "mean_anomaly": "58.17306924100305",
        "mean_motion": ".3031996212241749",
        "equinox": "J2000",
        "orbit_class": {
            "orbit_class_type": "AMO",
            "orbit_class_description": "Near-Earth asteroid orbits similar to that of 1221 Amor",
            "orbit_class_range": "1.017 AU < q (perihelion) < 1.3 AU"
        }
    },
    "is_sentry_object": false
}